TELSTAR 18V (APSTAR 5C) 
1 43611U 18069A   20357.93910426 -.00000283  00000-0  00000+0 0  9993
2 43611   0.0184 358.9451 0002097 258.9924 310.0743  1.00273660  8531
AZERSPACE 2 (IS-38)     
1 43632U 18074A   20358.13590887  .00000148  00000-0  00000+0 0  9999
2 43632   0.0186  22.5372 0001405 248.6592 274.9806  1.00272505  8402
HORIZONS 3E             
1 43633U 18074B   20358.18890684 -.00000019  00000-0  00000+0 0  9991
2 43633   0.0241 185.8553 0000591  72.1973  71.1318  1.00272181  8244
AEHF-4 (USA 288)        
1 43651U 18079A   20357.73814174  .00000138  00000-0  00000+0 0  9997
2 43651   3.4963 311.5617 0003648 278.1039 337.8777  1.00278368  8219
BEIDOU-3 G1             
1 43683U 18085A   20358.23243961 -.00000264  00000-0  00000+0 0  9996
2 43683   1.3713 244.3666 0004253   3.1491  68.3992  1.00275642  7993
GSAT-29                 
1 43698U 18089A   20357.52421970  .00000093  00000-0  00000-0 0  9995
2 43698   0.0651 101.9220 0003622 150.4292  82.9827  1.00273502  7705
ES'HAIL 2               
1 43700U 18090A   20357.77312341  .00000154  00000-0  00000+0 0  9996
2 43700   0.0186  25.2303 0001526 270.0658 100.5864  1.00272456  7848
GEO-KOMPSAT-2A          
1 43823U 18100A   20357.43473455 -.00000335  00000-0  00000-0 0  9994
2 43823   0.0433 231.5080 0002189  38.1247 106.5708  1.00270764  7535
GSAT-11                 
1 43824U 18100B   20357.78280663 -.00000067  00000-0  00000+0 0  9991
2 43824   0.0487 277.8522 0003880 200.1940 329.5540  1.00270933  7550
GSAT-7A                 
1 43864U 18105A   20357.43243969  .00000034  00000-0  00000-0 0  9994
2 43864   0.0602 101.1152 0002209 150.0938  58.7040  1.00273823  7383
COSMOS 2533             
1 43867U 18107A   20357.78202149 -.00000029  00000-0  00000+0 0  9996
2 43867   0.0401  96.8081 0000589 328.2522  18.2493  1.00271795  7357
TJS-3                   
1 43874U 18110A   20357.44399822 -.00000314  00000-0  00000-0 0  9994
2 43874   0.0763 262.0229 0000561  77.8444  19.4460  1.00089261  7337
TJS-3 AKM               
1 43917U 18110C   20357.52074785  .00000064  00000-0  00000-0 0  9990
2 43917   0.3527 104.6107 0001450 120.0866 113.3868  1.00275166  7279
CHINASAT 2D (ZX 2D)     
1 43920U 19001A   20357.43499626 -.00000328  00000-0  00000-0 0  9993
2 43920   0.0518 109.2825 0001172 356.6309 272.1441  1.00273319 33995
HELLAS-SAT 4 & SGS-1    
1 44034U 19007A   20357.77574050  .00000163  00000-0  00000+0 0  9993
2 44034   0.0719 126.0757 0004292  48.9201 235.0168  1.00270245  7275
GSAT-31                 
1 44035U 19007B   20357.77739799  .00000135  00000-0  00000+0 0  9996
2 44035   0.0984  98.3214 0004995 171.3607 149.8372  1.00272111  6890
NUSANTARA SATU          
1 44048U 19009A   20357.94058727 -.00000224  00000-0  00000+0 0  9996
2 44048   0.0120  25.1862 0001925 246.7175 304.6515  1.00270839  6693
CHINASAT 6C (ZX 6C)     
1 44067U 19012A   20357.43508351 -.00000329  00000-0  00000-0 0  9995
2 44067   0.0825 261.6117 0003137 357.4866 118.9743  1.00270849  6656
WGS 10 (USA 291)        
1 44071U 19014A   20357.51033410  .00000055  00000-0  00000+0 0  9994
2 44071   0.0975  98.2294 0000433  56.5832 180.7523  1.00271439  6528
TIANLIAN 2-01           
1 44076U 19017A   20358.14297499 -.00000124  00000-0  00000+0 0  9999
2 44076   1.5577 284.5927 0030617 222.3663  76.6989  1.00271535  6539
ARABSAT-6A              
1 44186U 19021A   20357.77408302  .00000163  00000-0  00000+0 0  9993
2 44186   0.0325 349.8658 0005349 287.1646 123.8757  1.00268950  6081
BEIDOU-3 IGSO-1         
1 44204U 19023A   20357.41068005 -.00000231  00000-0  00000+0 0  9996
2 44204  55.7658  58.8571 0018332 198.2426  94.8582  1.00292829  6279
BEIDOU-2 G8             
1 44231U 19027A   20357.44485288 -.00000238  00000-0  00000-0 0  9997
2 44231   0.5673 307.2676 0008082 274.3233 174.6028  1.00271250  6002
YAMAL 601               
1 44307U 19031A   20357.52421970  .00000129  00000-0  00000-0 0  9991
2 44307   0.0183  81.4206 0001685 192.6876  55.1342  1.00271754  5868
AT&T T-16               
1 44333U 19034A   20358.16754814 -.00000104  00000-0  00000+0 0  9993
2 44333   0.0159 330.3075 0000461 158.7864 282.5233  1.00269416  5565
EUTELSAT 7C             
1 44334U 19034B   20358.14563434  .00000059  00000-0  00000+0 0  9996
2 44334   0.0165 313.9598 0003298 300.8553 256.7656  1.00271041  6050
BEIDOU-3 IGSO-2         
1 44337U 19035A   20357.93308497 -.00000031  00000-0  00000+0 0  9993
2 44337  55.0756 176.5888 0016582 184.1812 174.0955  1.00283942  5613
COSMOS 2539             
1 44457U 19048A   20357.77041910  .00000091  00000-0  00000+0 0  9991
2 44457   0.0359  92.5408 0000206 180.9912 107.5847  1.00272804  5156
EDRS-C                  
1 44475U 19049A   20356.66146644  .00000160  00000-0  00000-0 0  9997
2 44475   0.0628 279.6508 0000735 330.1441 110.1949  1.00270328  5115
INTELSAT 39 (IS-39)     
1 44476U 19049B   20357.43243969  .00000042  00000-0  00000-0 0  9991
2 44476   0.0181 339.0187 0001279 171.8547 158.1933  1.00271335  5074
AMOS-17                 
1 44479U 19050A   20357.77137869  .00000119  00000-0  00000+0 0  9998
2 44479   0.0187 346.2881 0002024 276.7447 123.4320  1.00272274  5110
AEHF-5 (USA 292)        
1 44481U 19051A   20357.51033410  .00000090  00000-0  00000+0 0  9999
2 44481   5.5754 307.0434 0003937 316.9205  65.9240  1.00278136  5186
EUTELSAT 5 WEST B       
1 44624U 19067A   20357.44007887 -.00000033  00000-0  00000-0 0  9995
2 44624   0.0685 337.7331 0001354 239.8222  27.3233  1.00273386  4373
TJS-4                   
1 44637U 19070A   20357.42574924 -.00000161  00000-0  00000-0 0  9994
2 44637   0.0782  92.8127 0001803 185.2403  50.1778  1.00270415  4481
BEIDOU-3 IGSO-3         
1 44709U 19073A   20357.28704383 -.00000189  00000-0  00000-0 0  9995
2 44709  58.1187 301.9768 0020301 197.5766 163.2071  1.00276503  4375
TIBA-1                  
1 44800U 19080A   20357.36994131  .00000164  00000-0  00000-0 0  9998
2 44800   0.0507   5.4149 0002115 260.5893 353.9989  1.00270563  3974
INMARSAT GX5            
1 44801U 19080B   20357.43452174  .00000084  00000-0  00000-0 0  9994
2 44801   0.0727  77.8622 0002435 201.2380 339.7593  1.00273362  4026
JCSAT-18 (KACIFIC 1)    
1 44868U 19091A   20358.04077252 -.00000190  00000-0  00000+0 0  9995
2 44868   0.0458 152.2548 0000718 150.5583 313.8800  1.00270294  4012
ELEKTRO-L 3             
1 44903U 19095A   20357.42688253 -.00000088  00000-0  00000-0 0  9996
2 44903   0.0684 157.6287 0000592 104.8422  58.7014  1.00271245  3632
SHIJIAN-20 (SJ-20)      
1 44910U 19097A   20357.70800375 -.00000345  00000-0  00000+0 0  9993
2 44910   0.5528  95.3723 0026134 192.3194 183.4162  1.00270808  3615
TJS-5                   
1 44978U 20002A   20357.52869779  .00000051  00000-0  00000-0 0  9992
2 44978   0.1997 282.0861 0000885 353.0867 185.1033  1.00272474  3629
GSAT-30                 
1 45026U 20005A   20357.42566201 -.00000156  00000-0  00000-0 0  9990
2 45026   0.0158   4.4561 0001508 115.7781 207.4581  1.00269599  3435
EUTELSAT KONNECT        
1 45027U 20005B   20357.76945951  .00000060  00000-0  00000+0 0  9993
2 45027   0.0431  86.3488 0000341 175.0311 114.6172  1.00271866  4255
JCSAT-17                
1 45245U 20013A   20356.32693875 -.00000314  00000-0  00000-0 0  9994
2 45245   6.7037 344.0701 0003743 297.7622  62.2336  1.00272545  3142
GEO-KOMPSAT-2B          
1 45246U 20013B   20358.00889312 -.00000333  00000-0  00000+0 0  9995
2 45246   0.0052 102.0433 0000330 319.0231 162.3970  1.00271014  3173
BEIDOU-3 G2             
1 45344U 20017A   20357.78402793 -.00000132  00000-0  00000+0 0  9993
2 45344   2.6733 332.1203 0000970 302.1757 179.7903  1.00272446  3193
AEHF-6 (USA 298)        
1 45465U 20022B   20357.89278189 -.00000152  00000-0  00000+0 0  9997
2 45465   7.1560 307.5688 0003640 332.6212  38.9388  1.00273017  2916
BEIDOU-3 G3             
1 45807U 20040A   20357.57474850 -.00000344  00000-0  00000-0 0  9999
2 45807   2.6906 298.3967 0009601  13.7983  96.8598  1.00270209  2008
APSTAR 6D               
1 45863U 20045A   20357.86652382 -.00000308  00000-0  00000+0 0  9995
2 45863   0.0738 108.5866 0000517 119.2403 309.9591  1.00267896  1784
KOREASAT 116            
1 45920U 20048A   20357.79118128 -.00000352  00000-0  00000+0 0  9998
2 45920   0.0171 339.1485 0000987 278.9209 234.7579  1.00273583  1574
2020-053A               
1 45985U 20053A   20356.99972595 -.00000360  00000-0  10000-3 0  9996
2 45985   0.1778 245.0600 0424091 218.4996  89.4439  1.00226956  1551
2020-053B               
1 45986U 20053B   20357.13848075 -.00000191  00000-0  00000-0 0  9997
2 45986   0.1681 243.2169 0183544 219.6720 119.0927  1.00254453  1553
BSAT-4B                 
1 46112U 20056A   20357.35927532 -.00000342  00000-0  00000-0 0  9990
2 46112   0.0598 145.4096 0001837  41.8343 143.2751  1.00274319  1303
GALAXY 30               
1 46114U 20056C   20357.94145963 -.00000018  00000-0  00000+0 0  9996
2 46114   0.0123  42.6583 0000557 241.5217 296.3637  1.01208533  1348
